{"fetched_at": "2026-05-06T14:56:24.506415+00:00", "line1": "1 68835U 26092A   26126.03422443  .00002971  00000+0  20465-3 0  9996", "line2": "2 68835  38.0024 338.2099 0003384  35.7432 324.3556 15.06474750  1597"}
{"fetched_at": "2026-05-08T01:13:34.554378+00:00", "line1": "1 68835U 26092A   26126.82963161  .00002709  00000+0  18723-3 0  9993", "line2": "2 68835  38.0023 333.5209 0003250  43.7176 316.3842 15.06478859  1710"}
{"fetched_at": "2026-05-20T19:18:53.002827+00:00", "line1": "1 68835U 26092A   26140.21872354  .00001698  00000+0  11996-3 0  9996", "line2": "2 68835  38.0010 254.5889 0003909 177.9211 182.1568 15.06528742  3738"}
{"fetched_at": "2026-05-22T01:06:17.003541+00:00", "line1": "1 68835U 26092A   26141.61063260  .00001609  00000+0  11405-3 0  9996", "line2": "2 68835  38.0009 246.3830 0004128 188.8730 171.1959 15.06533651  3942"}
{"fetched_at": "2026-05-25T17:27:17.983248+00:00", "line1": "1 68835U 26092A   26145.18980117  .00002309  00000+0  16032-3 0  9990", "line2": "2 68835  38.0002 225.2813 0004746 215.8433 144.2010 15.06551195  4481"}
